{
  "type": "FeatureCollection",
  "features": [
    {
      "type": "Feature",
      "properties": {
        "norad_id": 67068,
        "name": "CZ-12 R/B",
        "group": "last-30-days",
        "lat": -22.463742914936418,
        "lon": 148.88056551581883,
        "alt_km": 719.8479727784925,
        "timestamp": "2025-12-27T10:28:57.518066+00:00",
        "meta_object_name": "CZ-12 R/B",
        "meta_object_id": "2025-295K",
        "meta_epoch": "2025-12-27T02:51:24.643008",
        "meta_mean_motion": 14.41130715,
        "meta_eccentricity": 0.0056902,
        "meta_inclination": 49.9943,
        "meta_ra_of_asc_node": 309.9386,
        "meta_arg_of_pericenter": 187.4653,
        "meta_mean_anomaly": 172.5425,
        "meta_ephemeris_type": 0,
        "meta_classification_type": "U",
        "meta_norad_cat_id": 67068,
        "meta_element_set_no": 999,
        "meta_rev_at_epoch": 218,
        "meta_bstar": 4.3047e-05,
        "meta_mean_motion_dot": -2.6e-07,
        "meta_mean_motion_ddot": 0,
        "tle_line1": "1 67068U 25295K   25361.11903522 -.00000026  00000+0  43047-4 0  9990",
        "tle_line2": "2 67068  49.9943 309.9386 0056902 187.4653 172.5425 14.41130715  2185"
      },
      "geometry": {
        "type": "Point",
        "coordinates": [
          148.88056551581883,
          -22.463742914936418
        ]
      }
    },
    {
      "type": "Feature",
      "properties": {
        "norad_id": 67069,
        "name": "XIWANG-5 02",
        "group": "last-30-days",
        "lat": -39.985939847588014,
        "lon": -54.736656338409766,
        "alt_km": 526.9747448481658,
        "timestamp": "2025-12-27T10:28:57.518076+00:00",
        "meta_object_name": "XIWANG-5 02",
        "meta_object_id": "2025-296A",
        "meta_epoch": "2025-12-23T12:00:44.103744",
        "meta_mean_motion": 15.16891516,
        "meta_eccentricity": 0.00145566,
        "meta_inclination": 41.3523,
        "meta_ra_of_asc_node": 40.1941,
        "meta_arg_of_pericenter": 102.8792,
        "meta_mean_anomaly": 257.3656,
        "meta_ephemeris_type": 0,
        "meta_classification_type": "U",
        "meta_norad_cat_id": 67069,
        "meta_element_set_no": 999,
        "meta_rev_at_epoch": 159,
        "meta_bstar": 0.00060249038,
        "meta_mean_motion_dot": 0.00011945,
        "meta_mean_motion_ddot": 0,
        "tle_line1": "1 67069U 25296A   25357.50051046  .00011945  00000+0  60249-3 0  9998",
        "tle_line2": "2 67069  41.3523  40.1941 0014556 102.8792 257.3656 15.16891516  1599"
      },
      "geometry": {
        "type": "Point",
        "coordinates": [
          -54.736656338409766,
          -39.985939847588014
        ]
      }
    },
    {
      "type": "Feature",
      "properties": {
        "norad_id": 67070,
        "name": "DEAR-5",
        "group": "last-30-days",
        "lat": -39.07541661582657,
        "lon": -49.648998586148075,
        "alt_km": 528.5691667488591,
        "timestamp": "2025-12-27T10:28:57.518086+00:00",
        "meta_object_name": "DEAR-5",
        "meta_object_id": "2025-296B",
        "meta_epoch": "2025-12-26T23:44:29.333760",
        "meta_mean_motion": 15.16901884,
        "meta_eccentricity": 0.0016625,
        "meta_inclination": 41.3552,
        "meta_ra_of_asc_node": 20.2864,
        "meta_arg_of_pericenter": 129.8184,
        "meta_mean_anomaly": 230.4103,
        "meta_ephemeris_type": 0,
        "meta_classification_type": "U",
        "meta_norad_cat_id": 67070,
        "meta_element_set_no": 999,
        "meta_rev_at_epoch": 211,
        "meta_bstar": 0.00034472,
        "meta_mean_motion_dot": 6.748e-05,
        "meta_mean_motion_ddot": 0,
        "tle_line1": "1 67070U 25296B   25360.98922840  .00006748  00000+0  34472-3 0  9999",
        "tle_line2": "2 67070  41.3552  20.2864 0016625 129.8184 230.4103 15.16901884  2117"
      },
      "geometry": {
        "type": "Point",
        "coordinates": [
          -49.648998586148075,
          -39.07541661582657
        ]
      }
    },
    {
      "type": "Feature",
      "properties": {
        "norad_id": 67073,
        "name": "RAISE-4",
        "group": "last-30-days",
        "lat": -5.457192002529925,
        "lon": 149.30917845862677,
        "alt_km": 548.1501526989732,
        "timestamp": "2025-12-27T10:28:57.518098+00:00",
        "meta_object_name": "RAISE-4",
        "meta_object_id": "2025-297B",
        "meta_epoch": "2025-12-26T21:45:38.069568",
        "meta_mean_motion": 15.07251265,
        "meta_eccentricity": 0.00116854,
        "meta_inclination": 97.4853,
        "meta_ra_of_asc_node": 148.0738,
        "meta_arg_of_pericenter": 267.6783,
        "meta_mean_anomaly": 92.3107,
        "meta_ephemeris_type": 0,
        "meta_classification_type": "U",
        "meta_norad_cat_id": 67073,
        "meta_element_set_no": 999,
        "meta_rev_at_epoch": 192,
        "meta_bstar": 0.00044339694,
        "meta_mean_motion_dot": 6.635e-05,
        "meta_mean_motion_ddot": 0,
        "tle_line1": "1 67073U 25297B   25360.90669062  .00006635  00000+0  44340-3 0  9999",
        "tle_line2": "2 67073  97.4853 148.0738 0011685 267.6783  92.3107 15.07251265  1920"
      },
      "geometry": {
        "type": "Point",
        "coordinates": [
          149.30917845862677,
          -5.457192002529925
        ]
      }
    },
    {
      "type": "Feature",
      "properties": {
        "norad_id": 67074,
        "name": "ELECTRON KICK STAGE R/B",
        "group": "last-30-days",
        "lat": -36.3117119447138,
        "lon": -35.9173220983046,
        "alt_km": 264.9372382724032,
        "timestamp": "2025-12-27T10:28:57.518108+00:00",
        "meta_object_name": "ELECTRON KICK STAGE R/B",
        "meta_object_id": "2025-297C",
        "meta_epoch": "2025-12-27T03:23:59.939808",
        "meta_mean_motion": 15.61270554,
        "meta_eccentricity": 0.018519,
        "meta_inclination": 97.4808,
        "meta_ra_of_asc_node": 149.3126,
        "meta_arg_of_pericenter": 217.2258,
        "meta_mean_anomaly": 141.6045,
        "meta_ephemeris_type": 0,
        "meta_classification_type": "U",
        "meta_norad_cat_id": 67074,
        "meta_element_set_no": 999,
        "meta_rev_at_epoch": 202,
        "meta_bstar": 0.0019472,
        "meta_mean_motion_dot": 0.00396589,
        "meta_mean_motion_ddot": 4.5547e-05,
        "tle_line1": "1 67074U 25297C   25361.14166597  .00396589  45547-4  19472-2 0  9999",
        "tle_line2": "2 67074  97.4808 149.3126 0185190 217.2258 141.6045 15.61270554  2020"
      },
      "geometry": {
        "type": "Point",
        "coordinates": [
          -35.9173220983046,
          -36.3117119447138
        ]
      }
    },
    {
      "type": "Feature",
      "properties": {
        "norad_id": 67075,
        "name": "STARLINK-36230",
        "group": "last-30-days",
        "lat": 67.01639604361905,
        "lon": -30.970974053129343,
        "alt_km": 346.9016635372045,
        "timestamp": "2025-12-27T10:28:57.518118+00:00",
        "meta_object_name": "STARLINK-36230",
        "meta_object_id": "2025-298A",
        "meta_epoch": "2025-12-27T04:00:01.998720",
        "meta_mean_motion": 15.73576332,
        "meta_eccentricity": 0.0003833,
        "meta_inclination": 70.0013,
        "meta_ra_of_asc_node": 208.9633,
        "meta_arg_of_pericenter": 277.4485,
        "meta_mean_anomaly": 95.047,
        "meta_ephemeris_type": 0,
        "meta_classification_type": "U",
        "meta_norad_cat_id": 67075,
        "meta_element_set_no": 999,
        "meta_rev_at_epoch": 329,
        "meta_bstar": -0.014241,
        "meta_mean_motion_dot": -0.01758549,
        "meta_mean_motion_ddot": 0,
        "tle_line1": "1 67075U 25298A   25361.16668980 -.01758549  00000+0 -14241-1 0  9995",
        "tle_line2": "2 67075  70.0013 208.9633 0003833 277.4485  95.0470 15.73576332  3294"
      },
      "geometry": {
        "type": "Point",
        "coordinates": [
          -30.970974053129343,
          67.01639604361905
        ]
      }
    },
    {
      "type": "Feature",
      "properties": {
        "norad_id": 67076,
        "name": "STARLINK-36240",
        "group": "last-30-days",
        "lat": 66.0295841696612,
        "lon": -26.80313359033104,
        "alt_km": 346.94285253973794,
        "timestamp": "2025-12-27T10:28:57.518128+00:00",
        "meta_object_name": "STARLINK-36240",
        "meta_object_id": "2025-298B",
        "meta_epoch": "2025-12-27T04:00:01.998720",
        "meta_mean_motion": 15.73575485,
        "meta_eccentricity": 0.0003766,
        "meta_inclination": 70.0013,
        "meta_ra_of_asc_node": 208.9608,
        "meta_arg_of_pericenter": 277.8043,
        "meta_mean_anomaly": 96.621,
        "meta_ephemeris_type": 0,
        "meta_classification_type": "U",
        "meta_norad_cat_id": 67076,
        "meta_element_set_no": 999,
        "meta_rev_at_epoch": 329,
        "meta_bstar": -0.014233,
        "meta_mean_motion_dot": -0.01757606,
        "meta_mean_motion_ddot": 0,
        "tle_line1": "1 67076U 25298B   25361.16668980 -.01757606  00000+0 -14233-1 0  9990",
        "tle_line2": "2 67076  70.0013 208.9608 0003766 277.8043  96.6210 15.73575485  3293"
      },
      "geometry": {
        "type": "Point",
        "coordinates": [
          -26.80313359033104,
          66.0295841696612
        ]
      }
    }
  ]
}